NORAD_CAT_ID,OBJECT_NAME,OBJECT_TYPE,EPOCH,MEAN_MOTION,ECCENTRICITY,INCLINATION,RA_OF_ASC_NODE,ARG_OF_PERICENTER,MEAN_ANOMALY,BSTAR,MEAN_MOTION_DOT,MEAN_MOTION_DDOT,TLE_LINE0,TLE_LINE1,TLE_LINE2,SEMIMAJOR_AXIS,PERIOD,APOGEE,PERIGEE,DECAYED
49135.0,STARLINK-3073,PAYLOAD,2023-09-06 16:13:53,14.98328153,0.0003133,70.001,41.5138,267.997,92.083,5.4757e-05,5.6e-06,0.0,0 STARLINK-3073,1 49135U 21082F   23249.67630912  .00000560  00000-0  54757-4 0  9992,2 49135  70.0010  41.5138 0003133 267.9970  92.0830 14.98328153109910,6950.199,96.107,574.241,569.886,0.0
49135.0,STARLINK-3073,PAYLOAD,2023-09-07 13:03:38,14.98325068,0.0003139,70.0012,39.3259,270.0649,90.0151,-3.2884e-05,-4.85e-06,0.0,0 STARLINK-3073,1 49135U 21082F   23250.54419366 -.00000485  00000-0 -32884-4 0  9993,2 49135  70.0012  39.3259 0003139 270.0649  90.0151 14.98325068110047,6950.208,96.107,574.255,569.891,0.0
49135.0,STARLINK-3073,PAYLOAD,2023-09-08 09:53:22,14.9833109,0.0003113,70.0004,37.1379,268.8958,91.1844,6.8822e-05,7.28e-06,0.0,0 STARLINK-3073,1 49135U 21082F   23251.41206761  .00000728  00000-0  68822-4 0  9992,2 49135  70.0004  37.1379 0003113 268.8958  91.1844 14.98331090110174,6950.19,96.107,574.218,569.891,0.0
49135.0,STARLINK-3073,PAYLOAD,2023-09-08 13:05:38,14.98332212,0.0003165,70.001,36.8007,270.1869,89.8927,7.4309e-05,7.94e-06,0.0,0 STARLINK-3073,1 49135U 21082F   23251.54558653  .00000794  00000-0  74309-4 0  9996,2 49135  70.0010  36.8007 0003165 270.1869  89.8927 14.98332212110194,6950.186,96.107,574.251,569.851,0.0
49135.0,STARLINK-3073,PAYLOAD,2023-09-08 19:30:10,14.98344578,0.0003115,70.001,36.127,271.4304,88.6498,-1.7965e-05,-3.07e-06,0.0,0 STARLINK-3073,1 49135U 21082F   23251.81262096 -.00000307  00000-0 -17965-4 0  9996,2 49135  70.0010  36.1270 0003115 271.4304  88.6498 14.98344578110235,6950.148,96.106,574.178,569.848,0.0
49135.0,STARLINK-3073,PAYLOAD,2023-09-09 11:31:31,14.98326848,0.0003122,70.0011,34.4443,270.9635,89.1166,7.7956e-05,8.37e-06,0.0,0 STARLINK-3073,1 49135U 21082F   23252.48022911  .00000837  00000-0  77956-4 0  9992,2 49135  70.0011  34.4443 0003122 270.9635  89.1166 14.98326848110337,6950.203,96.107,574.237,569.898,0.0
49135.0,STARLINK-3073,PAYLOAD,2023-09-09 13:07:39,14.98327556,0.0003111,70.001,34.2756,269.9263,90.1539,8.7035e-05,9.46e-06,0.0,0 STARLINK-3073,1 49135U 21082F   23252.54698869  .00000946  00000-0  87035-4 0  9990,2 49135  70.0010  34.2756 0003111 269.9263  90.1539 14.98327556110348,6950.2,96.107,574.228,569.903,0.0
49135.0,STARLINK-3073,PAYLOAD,2023-09-09 19:32:11,14.98335842,0.0003131,70.0011,33.6027,270.4998,89.5802,0.00011579,1.289e-05,0.0,0 STARLINK-3073,1 49135U 21082F   23252.81402290  .00001289  00000-0  11579-3 0  9991,2 49135  70.0011  33.6027 0003131 270.4998  89.5802 14.98335842110383,6950.175,96.107,574.216,569.864,0.0
49135.0,STARLINK-3073,PAYLOAD,2023-09-10 13:09:40,14.98332422,0.0003098,70.0014,31.7512,270.6752,89.4052,1.9272e-05,1.37e-06,0.0,0 STARLINK-3073,1 49135U 21082F   23253.54838658  .00000137  00000-0  19272-4 0  9993,2 49135  70.0014  31.7512 0003098 270.6752  89.4052 14.98332422110495,6950.185,96.107,574.204,569.897,0.0
49135.0,STARLINK-3073,PAYLOAD,2023-09-10 19:34:12,14.98336693,0.0002939,70.0018,31.078,267.8849,92.1973,6.3025e-05,6.59e-06,0.0,0 STARLINK-3073,1 49135U 21082F   23253.81542256  .00000659  00000-0  63025-4 0  9993,2 49135  70.0018  31.0780 0002939 267.8849  92.1973 14.98336693110539,6950.172,96.107,574.08,569.995,0.0
49135.0,STARLINK-3073,PAYLOAD,2023-09-11 09:59:25,14.98330741,0.0003007,70.0023,29.5641,270.1592,89.9222,5.8379e-05,6.04e-06,0.0,0 STARLINK-3073,1 49135U 21082F   23254.41626537  .00000604  00000-0  58379-4 0  9991,2 49135  70.0023  29.5641 0003007 270.1592  89.9222 14.98330741110621,6950.191,96.107,574.146,569.966,0.0
49135.0,STARLINK-3073,PAYLOAD,2023-09-11 13:11:41,14.98323088,0.0002984,70.0022,29.2273,269.7257,90.356,0.00018326,2.094e-05,0.0,0 STARLINK-3073,1 49135U 21082F   23254.54978803  .00002094  00000-0  18326-3 0  9993,2 49135  70.0022  29.2273 0002984 269.7257  90.3560 14.98323088110642,6950.214,96.107,574.153,570.005,0.0
49135.0,STARLINK-3073,PAYLOAD,2023-09-12 10:01:26,14.98330861,0.0002712,70.0026,27.04,260.506,99.5793,5.3022e-05,5.4e-06,0.0,0 STARLINK-3073,1 49135U 21082F   23255.41766408  .00000540  00000-0  53022-4 0  9993,2 49135  70.0026  27.0400 0002712 260.5060  99.5793 14.98330861110774,6950.19,96.107,573.94,570.17,0.0
49135.0,STARLINK-3073,PAYLOAD,2023-09-12 13:13:42,14.98329987,0.0002734,70.0025,26.7033,260.3811,99.7039,3.6347e-05,3.41e-06,0.0,0 STARLINK-3073,1 49135U 21082F   23255.55118504  .00000341  00000-0  36347-4 0  9996,2 49135  70.0025  26.7033 0002734 260.3811  99.7039 14.98329987110791,6950.193,96.107,573.958,570.158,0.0
49135.0,STARLINK-3073,PAYLOAD,2023-09-12 18:02:06,14.98332402,0.00028,70.0026,26.1986,263.9546,96.1294,3.9706e-05,3.81e-06,0.0,0 STARLINK-3073,1 49135U 21082F   23255.75146340  .00000381  00000-0  39706-4 0  9993,2 49135  70.0026  26.1986 0002800 263.9546  96.1294 14.98332402110825,6950.185,96.107,573.997,570.104,0.0
49135.0,STARLINK-3073,PAYLOAD,2023-09-13 10:03:26,14.98334882,0.0003074,70.0022,24.5139,270.4948,89.5859,0.00010146,1.118e-05,0.0,0 STARLINK-3073,1 49135U 21082F   23256.41905880  .00001118  00000-0  10146-3 0  9994,2 49135  70.0022  24.5139 0003074 270.4948  89.5859 14.98334882110924,6950.178,96.107,574.179,569.906,0.0
49135.0,STARLINK-3073,PAYLOAD,2023-09-13 13:15:42,14.9833492,0.0003088,70.0018,24.1783,267.7435,92.337,3.8324e-05,3.64e-06,0.0,0 STARLINK-3073,1 49135U 21082F   23256.55257974  .00000364  00000-0  38324-4 0  9994,2 49135  70.0018  24.1783 0003088 267.7435  92.3370 14.98334920110940,6950.178,96.107,574.189,569.896,0.0
49135.0,STARLINK-3073,PAYLOAD,2023-09-13 18:04:06,14.98336011,0.0003088,70.0019,23.6734,267.7419,92.3386,4.3744e-05,4.29e-06,0.0,0 STARLINK-3073,1 49135U 21082F   23256.75285830  .00000429  00000-0  43744-4 0  9992,2 49135  70.0019  23.6734 0003088 267.7419  92.3386 14.98336011110976,6950.174,96.107,574.186,569.893,0.0
49135.0,STARLINK-3073,PAYLOAD,2023-09-14 10:05:29,14.98318809,0.000277,70.003,21.9924,259.6314,100.4532,-0.00012138,-1.54e-05,0.0,0 STARLINK-3073,1 49135U 21082F   23257.42047543 -.00001540  00000-0 -12138-3 0  9993,2 49135  70.0030  21.9924 0002770 259.6314 100.4532 14.98318809111073,6950.227,96.108,574.018,570.167,0.0
49135.0,STARLINK-3073,PAYLOAD,2023-09-14 13:17:45,14.98316792,0.0003004,70.0023,21.6547,259.5178,100.5643,-8.0599e-05,-1.054e-05,0.0,0 STARLINK-3073,1 49135U 21082F   23257.55399671 -.00001054  00000-0 -80599-4 0  9996,2 49135  70.0023  21.6547 0003004 259.5178 100.5643 14.98316792111096,6950.234,96.108,574.187,570.011,0.0
49135.0,STARLINK-3073,PAYLOAD,2023-09-14 18:06:09,14.98320297,0.0003154,70.0018,21.1483,265.2905,94.7894,-7.4758e-05,-9.85e-06,0.0,0 STARLINK-3073,1 49135U 21082F   23257.75427592 -.00000985  00000-0 -74758-4 0  9994,2 49135  70.0018  21.1483 0003154 265.2905  94.7894 14.98320297111123,6950.223,96.108,574.28,569.896,0.0
49135.0,STARLINK-3073,PAYLOAD,2023-09-15 02:06:49,14.98326047,0.0003273,70.0016,20.3058,262.7493,97.3294,-3.0989e-05,-4.63e-06,0.0,0 STARLINK-3073,1 49135U 21082F   23258.08807199 -.00000463  00000-0 -30989-4 0  9995,2 49135  70.0016  20.3058 0003273 262.7493  97.3294 14.98326047111173,6950.205,96.107,574.345,569.795,0.0
49135.0,STARLINK-3073,PAYLOAD,2023-09-15 10:07:29,14.98332046,0.0003377,70.0012,19.4645,268.2235,91.8537,7.9125e-05,8.51e-06,0.0,0 STARLINK-3073,1 49135U 21082F   23258.42186643  .00000851  00000-0  79125-4 0  9991,2 49135  70.0012  19.4645 0003377 268.2235  91.8537 14.98332046111221,6950.187,96.107,574.399,569.704,0.0
49135.0,STARLINK-3073,PAYLOAD,2023-09-15 13:19:45,14.9834459,0.0003048,70.0015,19.1279,264.4044,95.6767,-0.0001195,-1.519e-05,0.0,0 STARLINK-3073,1 49135U 21082F   23258.55538295 -.00001519  00000-0 -11950-3 0  9994,2 49135  70.0015  19.1279 0003048 264.4044  95.6767 14.98344590111241,6950.148,96.106,574.131,569.894,0.0
49135.0,STARLINK-3073,PAYLOAD,2023-09-15 18:08:09,14.9833695,0.0003222,70.0017,18.623,268.8825,91.1965,0.00016593,1.888e-05,0.0,0 STARLINK-3073,1 49135U 21082F   23258.75566141  .00001888  00000-0  16593-3 0  9992,2 49135  70.0017  18.6230 0003222 268.8825  91.1965 14.98336950111278,6950.171,96.107,574.276,569.797,0.0
49135.0,STARLINK-3073,PAYLOAD,2023-09-16 10:09:25,14.98383864,0.0003081,70.0024,16.9403,225.2415,134.8494,0.00088879,0.00010543,0.0,0 STARLINK-3073,1 49135U 21082F   23259.42321587  .00010543  00000-0  88879-3 0  9994,2 49135  70.0024  16.9403 0003081 225.2415 134.8494 14.98383864111373,6950.026,96.104,574.033,569.75,0.0
49135.0,STARLINK-3073,PAYLOAD,2023-09-16 13:21:46,14.98322172,0.0002784,70.0028,16.6048,251.74,108.3456,0.00019617,2.248e-05,0.0,0 STARLINK-3073,1 49135U 21082F   23259.55678998  .00002248  00000-0  19617-3 0  9996,2 49135  70.0028  16.6048 0002784 251.7400 108.3456 14.98322172111397,6950.217,96.108,574.017,570.147,0.0
49135.0,STARLINK-3073,PAYLOAD,2023-09-16 18:10:10,14.98327696,0.0002999,70.0021,16.0988,265.8682,94.2134,0.00024901,2.879e-05,0.0,0 STARLINK-3073,1 49135U 21082F   23259.75706705  .00002879  00000-0  24901-3 0  9998,2 49135  70.0021  16.0988 0002999 265.8682  94.2134 14.98327696111429,6950.2,96.107,574.149,569.981,0.0
49135.0,STARLINK-3073,PAYLOAD,2023-09-17 13:23:46,14.98338193,0.0003161,70.0014,14.079,265.6537,94.4261,3.026e-05,2.68e-06,0.0,0 STARLINK-3073,1 49135U 21082F   23260.55818268  .00000268  00000-0  30260-4 0  9992,2 49135  70.0014  14.0790 0003161 265.6537  94.4261 14.98338193111549,6950.168,96.106,574.23,569.836,0.0
49135.0,STARLINK-3073,PAYLOAD,2023-09-17 18:12:10,14.98339092,0.0003156,70.0016,13.5743,265.4933,94.5865,0.00011475,1.277e-05,0.0,0 STARLINK-3073,1 49135U 21082F   23260.75845966  .00001277  00000-0  11475-3 0  9996,2 49135  70.0016  13.5743 0003156 265.4933  94.5865 14.98339092111578,6950.165,96.106,574.223,569.836,0.0
